{"fetched_at":"2026-03-29T16:36:15Z","count":15609,"tles":[{"name":"TECHDEMOSAT-1 (TDS-1)","line1":"1 40076U 14037H   26087.91848946  .00011186  00000+0  65589-3 0  9996","line2":"2 40076  98.3787  72.2759 0006642 164.4639 195.6794 15.11954236636096","category":"Other"}]}